#aV2019  2 16  0  0  0.00000000     288 DD+AD WGS84 FIT  NGA
## 2040 518400.00000000   300.00000000 58530 0.0000000000000
+   31     1  2  3  5  6  7  8  9 10 11 12 13 14 15 16 17 18
+         19 20 21 22 23 24 25 26 27 28 29 30 31 32  0  0  0
+          0  0  0  0  0  0  0  0  0  0  0  0  0  0  0  0  0
+          0  0  0  0  0  0  0  0  0  0  0  0  0  0  0  0  0
+          0  0  0  0  0  0  0  0  0  0  0  0  0  0  0  0  0
++         2  2  2  2  2  2  2  2  2  2  2  2  2  2  2  2  2
++         2  2  2  2  2  2  2  2  2  2  2  2  2  2  0  0  0
++         0  0  0  0  0  0  0  0  0  0  0  0  0  0  0  0  0
++         0  0  0  0  0  0  0  0  0  0  0  0  0  0  0  0  0
++         0  0  0  0  0  0  0  0  0  0  0  0  0  0  0  0  0
%c cc cc ccc ccc cccc cccc cccc cccc ccccc ccccc ccccc ccccc
%c cc cc ccc ccc cccc cccc cccc cccc ccccc ccccc ccccc ccccc
%f  0.0000000  0.000000000  0.00000000000  0.000000000000000
%f  0.0000000  0.000000000  0.00000000000  0.000000000000000
%i    0    0    0    0      0      0      0      0         0
%i    0    0    0    0      0      0      0      0         0
/*      NGA, ST. LOUIS,MO.                                  
/*   EPHEMERIS COMPUTED FROM 2 DAYS OF DATA                 
/*   EPOCHA v3 SMOOTHER                                     
/*   G1762 IERS2010 SATAF SATAPC                            
*  2019  2 16 11 50  0.00000000
P  1 -13837.585107  21482.059671   6444.902775   -164.289897                    
V  1    927.706183  -8801.342985  30827.106823     -0.070028                    
P  2  16032.663331  -1907.151266 -20455.085769   -141.293986                    
V  2  -8019.855088  26246.784008  -8666.173549     -0.098559                    
P  3 -17712.696835  12839.599559 -15044.323890    183.184244                    
V  3 -19169.559768    419.160231  23054.917803      0.017396                    
P  5  26444.703123  -1922.908429  -3000.894880      1.091201                    
V  5  -3154.450710   3484.719949 -31071.707297      0.000719                    
P  6  11043.540542  11239.666730 -21335.050200    274.541297                    
V  6 -10903.787762  24875.400814   7472.330337     -0.082376                    
P  7  -5006.475297  24797.192319   7502.421746     31.496433                    
V  7  -6588.734097   7309.890760 -29974.763975     -0.072161                    
P  8 -14976.686403   4771.214421  21483.818320   -132.957582                    
V  8 -16426.930602 -21569.121014  -6486.502075     -0.013969                    
P  9   4074.917691  21887.100529 -14524.532482    457.789326                    
V  9 -13165.798146 -13037.195865 -23423.612081     -0.052655                    
P 10 -13499.343069 -11975.622788  19605.264819    115.642476                    
V 10  24354.605435  -4336.562422  13969.662827     -0.076350                    
P 11 -10323.880929  19562.887474  14329.694710   -659.350530                    
V 11  -4077.464009 -19018.962961  21973.529114      0.059943                    
P 12  19884.292291 -10632.144149 -14091.181297    267.490661                    
V 12  17644.928500    558.032110  25014.158208     -0.031848                    
P 13  17779.061580   4205.201408  19174.005834    -74.750708                    
V 13  11363.212678  21815.310327 -15192.290450      0.012596                    
P 14 -18088.072142 -17775.806341  -7889.836832    -91.296253                    
V 14  -3497.561578 -10109.875688  29469.209858      0.007025                    
P 15  13689.799907  -8308.573706  20962.183979   -327.599049                    
V 15  18290.433756  20288.802650  -3465.539738      0.017184                    
P 16 -26754.851646      1.976058  -1763.889737    -19.583238                    
V 16   1918.748549  -1761.855829 -31881.743836     -0.025131                    
P 17  14339.520732  22402.207262   1241.790029     10.596784                    
V 17  -2251.797627    244.844977  32143.986444      0.054994                    
P 18 -16297.712911  14412.615307  14657.636124     26.524590                    
V 18   4311.966058 -19213.845678  23080.103354      0.037589                    
P 19  17806.521807  17755.730739  -8678.719186   -351.877562                    
V 19   3879.747325  10086.658617  29691.111748      0.041309                    
P 20  -3304.337652 -15472.676998  21220.409622    522.260232                    
V 20  26539.800075  -6524.885619   -759.579565      0.003775                    
P 21    640.646726 -24746.657270  10582.107574   -249.116261                    
V 21   6498.029535 -10707.091556 -27446.170102      0.072036                    
P 22 -22978.736230  10560.124605  -7791.045981   -646.403878                    
V 22 -10798.365445  -1611.190041  28850.213845     -0.080774                    
P 23  -6085.859262  15763.561601 -20081.814235   -197.053936                    
V 23 -17468.024159 -19802.700368 -10499.141752      0.012747                    
P 24  14973.946013 -18988.953707  10451.123194    -62.238579                    
V 24  -1477.412663  13972.834539  27437.444450     -0.004838                    
P 25   8378.734066 -15057.012532 -20339.330905   -721.210279                    
V 25  25352.993238  -2160.872088  12415.544141     -0.053933                    
P 26 -23818.427898  -4340.476867 -11131.190696    125.948324                    
V 26  13527.400736  -4607.638150 -27006.437900      0.102996                    
P 27 -19345.009968  -6160.720679  17190.394250    -68.743703                    
V 27 -12321.134752 -18085.773564 -19957.357682     -0.073608                    
P 28  10837.132851  13414.960240  20789.039279    764.718837                    
V 28 -24939.782572   1708.720220  12352.924097      0.008408                    
P 29    804.399940 -19853.000596 -17647.818623    269.275319                    
V 29  13420.506273  17862.794482 -19501.843204     -0.086362                    
P 30   3562.902279  20501.731618  16418.105371    -53.631779                    
V 30 -11015.069492  17969.284944 -20239.425668     -0.064065                    
P 31 -12247.158021  -9469.732788 -21532.416280     58.266101                    
V 31  11812.682596 -24738.630022   4597.287847     -0.026717                    
P 32 -17130.161792 -20317.943357  -1505.819265   -224.077756                    
V 32   1052.238337  -3297.011246  31516.245329      0.187617                    
EOF
